[{"OBJECT_NAME":"CAS500-1","OBJECT_ID":"2021-022A","EPOCH":"2026-03-09T23:57:39.791808","MEAN_MOTION":15.20304346,"ECCENTRICITY":0.00036012,"INCLINATION":97.4003,"RA_OF_ASC_NODE":326.196,"ARG_OF_PERICENTER":278.8383,"MEAN_ANOMALY":81.2444,"EPHEMERIS_TYPE":0,"CLASSIFICATION_TYPE":"U","NORAD_CAT_ID":47932,"ELEMENT_SET_NO":999,"REV_AT_EPOCH":27569,"BSTAR":0.00044667126,"MEAN_MOTION_DOT":9.645e-5,"MEAN_MOTION_DDOT":0},{"OBJECT_NAME":"STARLINK-2238","OBJECT_ID":"2021-041AH","EPOCH":"2026-03-10T00:00:02.999808","MEAN_MOTION":15.1912254,"ECCENTRICITY":8.931e-5,"INCLINATION":53.0542,"RA_OF_ASC_NODE":139.7754,"ARG_OF_PERICENTER":85.2454,"MEAN_ANOMALY":136.455,"EPHEMERIS_TYPE":0,"CLASSIFICATION_TYPE":"U","NORAD_CAT_ID":48584,"ELEMENT_SET_NO":999,"REV_AT_EPOCH":579,"BSTAR":0.0035639971,"MEAN_MOTION_DOT":0.00076253,"MEAN_MOTION_DDOT":0}]
